NORAD_CAT_ID,OBJECT_NAME,OBJECT_TYPE,EPOCH,MEAN_MOTION,ECCENTRICITY,INCLINATION,RA_OF_ASC_NODE,ARG_OF_PERICENTER,MEAN_ANOMALY,BSTAR,MEAN_MOTION_DOT,MEAN_MOTION_DDOT,TLE_LINE0,TLE_LINE1,TLE_LINE2,SEMIMAJOR_AXIS,PERIOD,APOGEE,PERIGEE,DECAYED
52854.0,STARLINK-4204,PAYLOAD,2022-11-17 08:21:16,15.08838962,0.0002367,53.2198,48.5716,26.2593,333.8519,6.0482e-05,6.74e-06,0.0,0 STARLINK-4204,1 52854U 22062AA  22321.34811032  .00000674  00000-0  60482-4 0  9999,2 52854  53.2198  48.5716 0002367  26.2593 333.8519 15.08838962 23995,6917.884,95.438,541.386,538.111,0.0
52854.0,STARLINK-4204,PAYLOAD,2022-11-17 09:56:39,15.08839017,0.0002146,53.2197,48.2744,34.7508,325.3624,5.9362e-05,6.57e-06,0.0,0 STARLINK-4204,1 52854U 22062AA  22321.41435009  .00000657  00000-0  59362-4 0  9999,2 52854  53.2197  48.2744 0002146  34.7508 325.3624 15.08839017 23510,6917.8830000000025,95.438,541.2330000000002,538.264,0.0
52854.0,STARLINK-4204,PAYLOAD,2022-11-17 11:32:03,15.08837718,0.0002175,53.2197,47.977,34.747,325.3664,4.6064e-05,4.45e-06,0.0,0 STARLINK-4204,1 52854U 22062AA  22321.48059144  .00000445  00000-0  46064-4 0  9998,2 52854  53.2197  47.9770 0002175  34.7470 325.3664 15.08837718 23526,6917.887,95.438,541.257,538.248,0.0
52854.0,STARLINK-4204,PAYLOAD,2022-11-18 08:12:04,15.08834536,0.0002323,53.2197,44.1113,34.1158,325.9983,0.00010415,1.369e-05,0.0,0 STARLINK-4204,1 52854U 22062AA  22322.34171297  .00001369  00000-0  10415-3 0  9994,2 52854  53.2197  44.1113 0002323  34.1158 325.9983 15.08834536 23657,6917.897,95.438,541.369,538.155,0.0
52854.0,STARLINK-4204,PAYLOAD,2022-11-18 09:47:27,15.08836489,0.0002368,53.2201,43.8138,27.5812,332.5305,0.00012298,1.669e-05,0.0,0 STARLINK-4204,1 52854U 22062AA  22322.40795172  .00001669  00000-0  12298-3 0  9999,2 52854  53.2201  43.8138 0002368  27.5812 332.5305 15.08836489 24155,6917.891,95.438,541.394,538.118,0.0
52854.0,STARLINK-4204,PAYLOAD,2022-11-19 08:02:51,15.08838496,0.0002288,53.22,39.6517,32.3364,327.7768,1.9821e-05,2.7e-07,0.0,0 STARLINK-4204,1 52854U 22062AA  22323.33531354  .00000027  00000-0  19821-4 0  9999,2 52854  53.2200  39.6517 0002288  32.3364 327.7768 15.08838496 23805,6917.885,95.438,541.3330000000002,538.1669999999998,0.0
52854.0,STARLINK-4204,PAYLOAD,2022-11-20 04:42:52,15.08838197,0.0002418,53.2198,35.7867,31.1419,328.9716,2.2936e-05,7.7e-07,0.0,0 STARLINK-4204,1 52854U 22062AA  22324.19643522  .00000077  00000-0  22936-4 0  9991,2 52854  53.2198  35.7867 0002418  31.1419 328.9716 15.08838197 24422,6917.886,95.438,541.424,538.078,0.0
52854.0,STARLINK-4204,PAYLOAD,2022-11-20 11:04:24,15.0884076,0.0002204,53.2197,34.5969,32.576,327.5368,8.4773e-05,1.061e-05,0.0,0 STARLINK-4204,1 52854U 22062AA  22324.46139106  .00001061  00000-0  84773-4 0  9990,2 52854  53.2197  34.5969 0002204  32.5760 327.5368 15.08840760 23974,6917.878000000002,95.438,541.268,538.2180000000002,0.0
52854.0,STARLINK-4204,PAYLOAD,2022-11-21 10:55:11,15.08840715,0.0002459,53.2195,30.1368,34.728,325.3872,8.495100000000001e-05,1.064e-05,0.0,0 STARLINK-4204,1 52854U 22062AA  22325.45499082  .00001064  00000-0  84951-4 0  9993,2 52854  53.2195  30.1368 0002459  34.7280 325.3872 15.08840715 24618,6917.878000000002,95.438,541.444,538.0419999999998,0.0
52854.0,STARLINK-4204,PAYLOAD,2022-11-22 10:45:57,15.08844064,0.0002494,53.2198,25.6771,31.3211,328.7929,6.7219e-05,7.82e-06,0.0,0 STARLINK-4204,1 52854U 22062AA  22326.44858708  .00000782  00000-0  67219-4 0  9991,2 52854  53.2198  25.6771 0002494  31.3211 328.7929 15.08844064 24277,6917.868,95.437,541.4580000000002,538.008,0.0
52854.0,STARLINK-4204,PAYLOAD,2022-11-23 05:50:36,15.08832568,0.0002538,53.2197,22.1086,32.0731,328.0415,-8.095700000000001e-06,-4.17e-06,0.0,0 STARLINK-4204,1 52854U 22062AA  22327.24347620 -.00000417  00000-0 -80957-5 0  9998,2 52854  53.2197  22.1086 0002538  32.0731 328.0415 15.08832568 24887,6917.903,95.438,541.524,538.012,0.0
52854.0,STARLINK-4204,PAYLOAD,2022-11-23 10:36:46,15.08828275,0.0002467,53.2196,21.2162,33.9933,326.1217,-4.3794e-05,-9.85e-06,0.0,0 STARLINK-4204,1 52854U 22062AA  22327.44220075 -.00000985  00000-0 -43794-4 0  9991,2 52854  53.2196  21.2162 0002467  33.9933 326.1217 15.08828275 24425,6917.916,95.438,541.488,538.075,0.0
52854.0,STARLINK-4204,PAYLOAD,2022-11-23 13:47:32,15.08830451,0.0002459,53.2205,20.6215,28.6369,331.4758,-7.7493e-05,-1.521e-05,0.0,0 STARLINK-4204,1 52854U 22062AA  22327.57468127 -.00001521  00000-0 -77493-4 0  9997,2 52854  53.2205  20.6215 0002459  28.6369 331.4758 15.08830451 24443,6917.91,95.438,541.476,538.073,0.0
52854.0,STARLINK-4204,PAYLOAD,2022-11-24 10:27:32,15.08838774,0.0002501,53.22,16.7562,28.8373,331.2757,4.6209e-05,4.47e-06,0.0,0 STARLINK-4204,1 52854U 22062AA  22328.43579473  .00000447  00000-0  46209-4 0  9995,2 52854  53.2200  16.7562 0002501  28.8373 331.2757 15.08838774 24571,6917.884,95.438,541.479,538.019,0.0
52854.0,STARLINK-4204,PAYLOAD,2022-11-24 12:02:55,15.0884201,0.0002518,53.2202,16.4587,28.9434,331.1697,3.3301e-05,2.42e-06,0.0,0 STARLINK-4204,1 52854U 22062AA  22328.50203331  .00000242  00000-0  33301-4 0  9992,2 52854  53.2202  16.4587 0002518  28.9434 331.1697 15.08842010 25070,6917.874,95.437,541.481,537.997,0.0
52854.0,STARLINK-4204,PAYLOAD,2022-11-24 19:59:51,15.08845523,0.0002539,53.2203,14.9721,29.3738,330.7397,6.701399999999999e-05,7.78e-06,0.0,0 STARLINK-4204,1 52854U 22062AA  22328.83322963  .00000778  00000-0  67014-4 0  9993,2 52854  53.2203  14.9721 0002539  29.3738 330.7397 15.08845523 24634,6917.864000000001,95.437,541.485,537.972,0.0
52854.0,STARLINK-4204,PAYLOAD,2022-11-25 10:18:20,15.08830551,0.0002504,53.2205,12.2968,29.4391,330.6742,0.00010547,1.39e-05,0.0,0 STARLINK-4204,1 52854U 22062AA  22329.42940046  .00001390  00000-0  10547-3 0  9996,2 52854  53.2205  12.2968 0002504  29.4391 330.6742 15.08830551 25211,6917.909000000002,95.438,541.507,538.0419999999998,0.0
52854.0,STARLINK-4204,PAYLOAD,2022-11-26 02:12:10,15.08846752,0.0002474,53.2203,9.3231,31.5681,328.5459,0.00015314,2.15e-05,0.0,0 STARLINK-4204,1 52854U 22062AA  22330.09178981  .00002150  00000-0  15314-3 0  9994,2 52854  53.2203   9.3231 0002474  31.5681 328.5459 15.08846752 25313,6917.86,95.437,541.436,538.013,0.0
52854.0,STARLINK-4204,PAYLOAD,2022-11-26 08:33:43,15.08841763,0.000245,53.2204,8.1332,32.8348,327.2796,4.9349e-05,4.97e-06,0.0,0 STARLINK-4204,1 52854U 22062AA  22330.35675518  .00000497  00000-0  49349-4 0  9999,2 52854  53.2204   8.1332 0002450  32.8348 327.2796 15.08841763 25352,6917.875,95.437,541.435,538.045,0.0
52854.0,STARLINK-4204,PAYLOAD,2022-11-26 10:09:06,15.08844147,0.0002618,53.2198,7.835,27.8406,332.2726,5.2232e-05,5.43e-06,0.0,0 STARLINK-4204,1 52854U 22062AA  22330.42299382  .00000543  00000-0  52232-4 0  9995,2 52854  53.2198   7.8350 0002618  27.8406 332.2726 15.08844147 24879,6917.868,95.437,541.544,537.922,0.0
52854.0,STARLINK-4204,PAYLOAD,2022-11-26 19:41:24,15.088509900000002,0.0002637,53.2198,6.0507,28.0791,332.0343,9.4276e-05,1.213e-05,0.0,0 STARLINK-4204,1 52854U 22062AA  22330.82042630  .00001213  00000-0  94276-4 0  9990,2 52854  53.2198   6.0507 0002637  28.0791 332.0343 15.08850990 25423,6917.847,95.437,541.536,537.888,0.0
52854.0,STARLINK-4204,PAYLOAD,2022-11-27 03:38:20,15.08841496,0.0002596,53.2197,4.5634,28.8708,331.2427,0.00010939,1.453e-05,0.0,0 STARLINK-4204,1 52854U 22062AA  22331.15163013  .00001453  00000-0  10939-3 0  9995,2 52854  53.2197   4.5634 0002596  28.8708 331.2427 15.08841496 25476,6917.876,95.437,541.5369999999998,537.945,0.0
52854.0,STARLINK-4204,PAYLOAD,2022-11-27 08:24:30,15.08842066,0.0002617,53.2197,3.6713,29.3791,330.7348,0.00010608,1.4e-05,0.0,0 STARLINK-4204,1 52854U 22062AA  22331.35034949  .00001400  00000-0  10608-3 0  9997,2 52854  53.2197   3.6713 0002617  29.3791 330.7348 15.08842066 25016,6917.874,95.437,541.549,537.929,0.0
52854.0,STARLINK-4204,PAYLOAD,2022-11-27 19:32:13,15.088374300000002,0.0002605,53.2196,1.5907,25.6361,334.476,-6.5561e-05,-1.332e-05,0.0,0 STARLINK-4204,1 52854U 22062AA  22331.81403954 -.00001332  00000-0 -65561-4 0  9999,2 52854  53.2196   1.5907 0002605  25.6361 334.4760 15.08837430 25575,6917.888000000001,95.438,541.555,537.951,0.0
52854.0,STARLINK-4204,PAYLOAD,2022-11-28 11:26:03,15.08842521,0.0002585,53.2195,358.6176,26.1401,333.9722,6.2392e-05,7.05e-06,0.0,0 STARLINK-4204,1 52854U 22062AA  22332.47643348  .00000705  00000-0  62392-4 0  9995,2 52854  53.2195 358.6176 0002585  26.1401 333.9722 15.08842521 25676,6917.873000000001,95.437,541.526,537.9490000000002,0.0
52854.0,STARLINK-4204,PAYLOAD,2022-11-29 11:16:51,15.08836185,0.0002711,53.2187,354.1572,26.1989,333.914,0.00018091,2.592e-05,0.0,0 STARLINK-4204,1 52854U 22062AA  22333.47003678  .00002592  00000-0  18091-3 0  9994,2 52854  53.2187 354.1572 0002711  26.1989 333.9140 15.08836185 25336,6917.892,95.438,541.632,537.882,0.0
52854.0,STARLINK-4204,PAYLOAD,2022-11-30 07:56:52,15.08832771,0.0002718,53.218,350.2908,28.7991,331.3151,1.8144e-05,0.0,0.0,0 STARLINK-4204,1 52854U 22062AA  22334.33116602  .00000000  00000-0  18144-4 0  9994,2 52854  53.2180 350.2908 0002718  28.7991 331.3151 15.08832771 25956,6917.901999999999,95.438,541.648,537.887,0.0
52854.0,STARLINK-4204,PAYLOAD,2022-12-01 10:58:25,15.08844013,0.000275,53.2203,345.2377,25.1451,334.9675,9.7097e-05,1.257e-05,0.0,0 STARLINK-4204,1 52854U 22062AA  22335.45724178  .00001257  00000-0  97097-4 0  9990,2 52854  53.2203 345.2377 0002750  25.1451 334.9675 15.08844013 25631,6917.868,95.437,541.636,537.831,0.0
52854.0,STARLINK-4204,PAYLOAD,2022-12-01 17:19:58,15.08847075,0.0002788999999999,53.2204,344.0483,25.5419,334.5711,6.8599e-05,8.04e-06,0.0,0 STARLINK-4204,1 52854U 22062AA  22335.72220012  .00000804  00000-0  68599-4 0  9990,2 52854  53.2204 344.0483 0002789  25.5419 334.5711 15.08847075 26164,6917.859,95.437,541.653,537.794,0.0
